start=new Date('2022-03-08T00:00:00.000Z').valueOf();
sats=[{"MEAN_MOTION_DDOT":"0.0000000000000","RA_OF_ASC_NODE":"278.3760","OBJECT_TYPE":"PAYLOAD","FILE":"3349821","ARG_OF_PERICENTER":"69.9040","MEAN_ANOMALY":"290.2126","PERIOD":"95.594","BSTAR":"0.00012133000000","RCS_SIZE":"LARGE","EPHEMERIS_TYPE":"0","TLE_LINE2":"2 48471  53.0526 278.3760 0001648  69.9040 290.2126 15.06364389 46015","CLASSIFICATION_TYPE":"U","OBJECT_NAME":"STARLINK-2684","INCLINATION":"53.0526","MEAN_ELEMENT_THEORY":"SGP4","CENTER_NAME":"EARTH","EPOCH":"2022-03-07T21:26:31.808544","ECCENTRICITY":"0.00016480","TLE_LINE1":"1 48471U 21040AV  22066.89342371  .00001524  00000-0  12133-3 0  9999","COUNTRY_CODE":"US","GP_ID":"198188521","APOAPSIS":"548.464","TIME_SYSTEM":"UTC","MEAN_MOTION_DOT":"0.00001524","OBJECT_ID":"2021-040AV","SITE":"AFETR","MEAN_MOTION":"15.06364389","ELEMENT_SET_NO":"999","REF_FRAME":"TEME","SEMIMAJOR_AXIS":"6925.458","LAUNCH_DATE":"2021-05-09","REV_AT_EPOCH":"4601","PERIAPSIS":"546.181","NORAD_CAT_ID":"48471","DECAY_DATE":null},{"TIME_SYSTEM":"UTC","APOAPSIS":"548.420","GP_ID":"198189271","TLE_LINE1":"1 48472U 21040AW  22066.87496516  .00001838  00000-0  14226-3 0  9992","COUNTRY_CODE":"US","ECCENTRICITY":"0.00017390","EPOCH":"2022-03-07T20:59:56.989824","DECAY_DATE":null,"NORAD_CAT_ID":"48472","REV_AT_EPOCH":"4600","PERIAPSIS":"546.012","LAUNCH_DATE":"2021-05-09","SEMIMAJOR_AXIS":"6925.351","REF_FRAME":"TEME","MEAN_MOTION":"15.06399197","ELEMENT_SET_NO":"999","SITE":"AFETR","OBJECT_ID":"2021-040AW","MEAN_MOTION_DOT":"0.00001838","PERIOD":"95.592","MEAN_ANOMALY":"296.1672","ARG_OF_PERICENTER":"63.9496","FILE":"3349821","RA_OF_ASC_NODE":"278.4454","OBJECT_TYPE":"PAYLOAD","MEAN_MOTION_DDOT":"0.0000000000000","MEAN_ELEMENT_THEORY":"SGP4","CENTER_NAME":"EARTH","OBJECT_NAME":"STARLINK-2722","INCLINATION":"53.0538","CLASSIFICATION_TYPE":"U","TLE_LINE2":"2 48472  53.0538 278.4454 0001739  63.9496 296.1672 15.06399197 46005","EPHEMERIS_TYPE":"0","RCS_SIZE":"LARGE","BSTAR":"0.00014226000000"},{"REV_AT_EPOCH":"4600","PERIAPSIS":"546.061","DECAY_DATE":null,"NORAD_CAT_ID":"48473","MEAN_MOTION_DOT":"-0.00001957","OBJECT_ID":"2021-040AX","LAUNCH_DATE":"2021-05-09","REF_FRAME":"TEME","SEMIMAJOR_AXIS":"6925.363","MEAN_MOTION":"15.06395391","ELEMENT_SET_NO":"999","SITE":"AFETR","TIME_SYSTEM":"UTC","APOAPSIS":"548.395","ECCENTRICITY":"0.00016850","EPOCH":"2022-03-07T20:17:28.754016","TLE_LINE1":"1 48473U 21040AX  22066.84547169 -.00001957  00000-0 -11253-3 0  9992","COUNTRY_CODE":"US","GP_ID":"198188019","CLASSIFICATION_TYPE":"U","MEAN_ELEMENT_THEORY":"SGP4","CENTER_NAME":"EARTH","OBJECT_NAME":"STARLINK-2658","INCLINATION":"53.0515","EPHEMERIS_TYPE":"0","RCS_SIZE":"LARGE","BSTAR":"-0.00011253000000","TLE_LINE2":"2 48473  53.0515 278.5904 0001685  68.9172 291.1996 15.06395391 46004","PERIOD":"95.592","MEAN_ANOMALY":"291.1996","ARG_OF_PERICENTER":"68.9172","OBJECT_TYPE":"PAYLOAD","RA_OF_ASC_NODE":"278.5904","MEAN_MOTION_DDOT":"0.0000000000000","FILE":"3349821"},{"COUNTRY_CODE":"US","TLE_LINE1":"1 48474U 21040AY  22066.87864554 -.00000343  00000-0 -41480-5 0  9991","GP_ID":"198187770","ECCENTRICITY":"0.00015750","EPOCH":"2022-03-07T21:05:14.974656","TIME_SYSTEM":"UTC","APOAPSIS":"548.311","LAUNCH_DATE":"2021-05-09","SEMIMAJOR_AXIS":"6925.355","REF_FRAME":"TEME","ELEMENT_SET_NO":"999","MEAN_MOTION":"15.06397964","SITE":"AFETR","OBJECT_ID":"2021-040AY","MEAN_MOTION_DOT":"-0.00000343","DECAY_DATE":null,"NORAD_CAT_ID":"48474","REV_AT_EPOCH":"4600","PERIAPSIS":"546.129","FILE":"3349821","RA_OF_ASC_NODE":"278.4266","OBJECT_TYPE":"PAYLOAD","MEAN_MOTION_DDOT":"0.0000000000000","PERIOD":"95.592","MEAN_ANOMALY":"289.5992","ARG_OF_PERICENTER":"70.5167","TLE_LINE2":"2 48474  53.0551 278.4266 0001575  70.5167 289.5992 15.06397964 46001","EPHEMERIS_TYPE":"0","RCS_SIZE":"LARGE","BSTAR":"-0.00000414800000","MEAN_ELEMENT_THEORY":"SGP4","CENTER_NAME":"EARTH","OBJECT_NAME":"STARLINK-2697","INCLINATION":"53.0551","CLASSIFICATION_TYPE":"U"},{"ECCENTRICITY":"0.00015720","EPOCH":"2022-03-07T20:22:48.292320","COUNTRY_CODE":"US","TLE_LINE1":"1 48475U 21040AZ  22066.84917005 -.00000980  00000-0 -46911-4 0  9999","GP_ID":"198189021","TIME_SYSTEM":"UTC","APOAPSIS":"548.322","OBJECT_ID":"2021-040AZ","MEAN_MOTION_DOT":"-0.00000980","LAUNCH_DATE":"2021-05-09","REF_FRAME":"TEME","SEMIMAJOR_AXIS":"6925.369","ELEMENT_SET_NO":"999","MEAN_MOTION":"15.06393400","SITE":"AFETR","REV_AT_EPOCH":"4600","PERIAPSIS":"546.145","DECAY_DATE":null,"NORAD_CAT_ID":"48475","RA_OF_ASC_NODE":"278.5750","OBJECT_TYPE":"PAYLOAD","MEAN_MOTION_DDOT":"0.0000000000000","FILE":"3349821","PERIOD":"95.593","MEAN_ANOMALY":"301.8126","ARG_OF_PERICENTER":"58.3016","EPHEMERIS_TYPE":"0","RCS_SIZE":"LARGE","BSTAR":"-0.00004691100000","TLE_LINE2":"2 48475  53.0540 278.5750 0001572  58.3016 301.8126 15.06393400 46001","CLASSIFICATION_TYPE":"U","MEAN_ELEMENT_THEORY":"SGP4","CENTER_NAME":"EARTH","INCLINATION":"53.0540","OBJECT_NAME":"STARLINK-2619"},{"APOAPSIS":"548.342","TIME_SYSTEM":"UTC","COUNTRY_CODE":"US","TLE_LINE1":"1 48476U 21040BA  22066.87127850  .00000188  00000-0  31541-4 0  9995","GP_ID":"198188772","ECCENTRICITY":"0.00015820","EPOCH":"2022-03-07T20:54:38.462400","NORAD_CAT_ID":"48476","DECAY_DATE":null,"PERIAPSIS":"546.150","REV_AT_EPOCH":"4600","MEAN_MOTION":"15.06389442","ELEMENT_SET_NO":"999","SITE":"AFETR","LAUNCH_DATE":"2021-05-09","SEMIMAJOR_AXIS":"6925.381","REF_FRAME":"TEME","MEAN_MOTION_DOT":"0.00000188","OBJECT_ID":"2021-040BA","ARG_OF_PERICENTER":"83.9374","PERIOD":"95.593","MEAN_ANOMALY":"276.1795","FILE":"3349821","MEAN_MOTION_DDOT":"0.0000000000000","OBJECT_TYPE":"PAYLOAD","RA_OF_ASC_NODE":"278.4596","MEAN_ELEMENT_THEORY":"SGP4","CENTER_NAME":"EARTH","OBJECT_NAME":"STARLINK-2723","INCLINATION":"53.0540","CLASSIFICATION_TYPE":"U","TLE_LINE2":"2 48476  53.0540 278.4596 0001582  83.9374 276.1795 15.06389442 46008","BSTAR":"0.00003154100000","EPHEMERIS_TYPE":"0","RCS_SIZE":"LARGE"},{"EPHEMERIS_TYPE":"0","RCS_SIZE":"LARGE","BSTAR":"0.00000994210000","TLE_LINE2":"2 48478  53.0536 278.5438 0001520  71.1191 288.9962 15.06403525 46005","CLASSIFICATION_TYPE":"U","CENTER_NAME":"EARTH","MEAN_ELEMENT_THEORY":"SGP4","OBJECT_NAME":"STARLINK-2728","INCLINATION":"53.0536","RA_OF_ASC_NODE":"278.5438","OBJECT_TYPE":"PAYLOAD","MEAN_MOTION_DDOT":"0.0000000000000","FILE":"3349821","PERIOD":"95.592","MEAN_ANOMALY":"288.9962","ARG_OF_PERICENTER":"71.1191","MEAN_MOTION_DOT":"-0.00000133","OBJECT_ID":"2021-040BC","LAUNCH_DATE":"2021-05-09","SEMIMAJOR_AXIS":"6925.338","REF_FRAME":"TEME","ELEMENT_SET_NO":"999","MEAN_MOTION":"15.06403525","SITE":"AFETR","PERIAPSIS":"546.150","REV_AT_EPOCH":"4600","DECAY_DATE":null,"NORAD_CAT_ID":"48478","ECCENTRICITY":"0.00015200","EPOCH":"2022-03-07T20:33:23.881824","GP_ID":"198187520","TLE_LINE1":"1 48478U 02032DG  22066.85652641 -.00000133  00000-0  99421-5 0  9999","COUNTRY_CODE":"US","TIME_SYSTEM":"UTC","APOAPSIS":"548.255"},{"PERIOD":"95.593","MEAN_ANOMALY":"286.1987","ARG_OF_PERICENTER":"73.9185","FILE":"3349821","RA_OF_ASC_NODE":"278.5586","OBJECT_TYPE":"PAYLOAD","MEAN_MOTION_DDOT":"0.0000000000000","CENTER_NAME":"EARTH","MEAN_ELEMENT_THEORY":"SGP4","OBJECT_NAME":"STARLINK-2755","INCLINATION":"53.0533","CLASSIFICATION_TYPE":"U","TLE_LINE2":"2 48479  53.0533 278.5586 0001664  73.9185 286.1987 15.06392834 46006","EPHEMERIS_TYPE":"0","RCS_SIZE":"LARGE","BSTAR":"-0.00011443000000","TIME_SYSTEM":"UTC","APOAPSIS":"548.388","TLE_LINE1":"1 48479U 21040BD  22066.85285071 -.00001985  00000-0 -11443-3 0  9992","COUNTRY_CODE":"US","GP_ID":"198188270","ECCENTRICITY":"0.00016640","EPOCH":"2022-03-07T20:28:06.301344","DECAY_DATE":null,"NORAD_CAT_ID":"48479","PERIAPSIS":"546.083","REV_AT_EPOCH":"4600","LAUNCH_DATE":"2021-05-09","SEMIMAJOR_AXIS":"6925.371","REF_FRAME":"TEME","MEAN_MOTION":"15.06392834","ELEMENT_SET_NO":"999","SITE":"AFETR","MEAN_MOTION_DOT":"-0.00001985","OBJECT_ID":"2021-040BD"},{"REF_FRAME":"TEME","SEMIMAJOR_AXIS":"6925.358","LAUNCH_DATE":"2021-05-09","SITE":"AFETR","ELEMENT_SET_NO":"999","MEAN_MOTION":"15.06396848","OBJECT_ID":"2021-040BE","MEAN_MOTION_DOT":"0.00000513","DECAY_DATE":null,"NORAD_CAT_ID":"48480","PERIAPSIS":"546.130","REV_AT_EPOCH":"4586","TLE_LINE1":"1 48480U 21040BE  22066.86666587  .00000513  00000-0  53318-4 0  9992","GP_ID":"198188522","COUNTRY_CODE":"US","EPOCH":"2022-03-07T20:47:59.931168","ECCENTRICITY":"0.00015780","TIME_SYSTEM":"UTC","APOAPSIS":"548.316","TLE_LINE2":"2 48480  53.0562 288.4829 0001578  60.1444 299.9702 15.06396848 45869","RCS_SIZE":"LARGE","EPHEMERIS_TYPE":"0","BSTAR":"0.00005331800000","INCLINATION":"53.0562","OBJECT_NAME":"STARLINK-2690","CENTER_NAME":"EARTH","MEAN_ELEMENT_THEORY":"SGP4","CLASSIFICATION_TYPE":"U","FILE":"3349821","OBJECT_TYPE":"PAYLOAD","RA_OF_ASC_NODE":"288.4829","MEAN_MOTION_DDOT":"0.0000000000000","MEAN_ANOMALY":"299.9702","PERIOD":"95.592","ARG_OF_PERICENTER":"60.1444"},{"BSTAR":"0.00030802000000","RCS_SIZE":"LARGE","EPHEMERIS_TYPE":"0","TLE_LINE2":"2 48481  53.0532 288.4284 0001589  62.0094 298.1055 15.06409981 45861","CLASSIFICATION_TYPE":"U","OBJECT_NAME":"STARLINK-2706","INCLINATION":"53.0532","CENTER_NAME":"EARTH","MEAN_ELEMENT_THEORY":"SGP4","MEAN_MOTION_DDOT":"0.0000000000000","OBJECT_TYPE":"PAYLOAD","RA_OF_ASC_NODE":"288.4284","FILE":"3349821","ARG_OF_PERICENTER":"62.0094","MEAN_ANOMALY":"298.1055","PERIOD":"95.592","OBJECT_ID":"2021-040BF","MEAN_MOTION_DOT":"0.00004311","SITE":"AFETR","ELEMENT_SET_NO":"999","MEAN_MOTION":"15.06409981","SEMIMAJOR_AXIS":"6925.318","REF_FRAME":"TEME","LAUNCH_DATE":"2021-05-09","REV_AT_EPOCH":"4586","PERIAPSIS":"546.083","NORAD_CAT_ID":"48481","DECAY_DATE":null,"EPOCH":"2022-03-07T21:07:52.359168","ECCENTRICITY":"0.00015890","TLE_LINE1":"1 48481U 21040BF  22066.88046712  .00004311  00000-0  30802-3 0  9999","GP_ID":"198189272","COUNTRY_CODE":"US","APOAPSIS":"548.283","TIME_SYSTEM":"UTC"}];
